SatCatId,ObjectName,LaunchYear,OrbitalPeriod,LaunchMass,StatusCode,Inclination,Status,UcsData,OrbitClassEstimated,LaunchSiteCountry,Owner,UseType,Purpose,LaunchVehicleClass,TLE1,TLE2,MeanMotion,Eccentricity,OrbitClass
46782,STARLINK-1835,2020,95.59,260.0,+,53.05,Active,1,LEO,USA,USA,Commercial,Communications,Falcon,1 46782U 20074AV  24258.29715892  .00027887  00000+0  18853-2 0  9992,2 46782  53.0514 222.0243 0001512  99.5054 260.6106 15.06367483215218,15.06367483,0.0001512,LEO
46784,STARLINK-1882,2020,95.59,260.0,+,53.05,Active,1,LEO,USA,USA,Commercial,Communications,Falcon,1 46784U 20074AX  24258.20503197 -.00008452  00000+0 -54972-3 0  9990,2 46784  53.0534 222.6675 0000514  55.3764 304.7274 15.06367486215192,15.06367486,5.14e-05,LEO
46785,STARLINK-1883,2020,95.59,260.0,+,53.05,Active,1,LEO,USA,USA,Commercial,Communications,Falcon,1 46785U 20074AY  24258.30084010  .00008805  00000+0  60957-3 0  9990,2 46785  53.0519 222.0067 0001461 105.4230 254.6920 15.06380897215217,15.06380897,0.0001461,LEO
46786,STARLINK-1893,2020,95.59,260.0,+,53.05,Active,1,LEO,USA,USA,Commercial,Communications,Falcon,1 46786U 20074AZ  24258.54596263  .00013699  00000+0  93739-3 0  9996,2 46786  53.0506 200.9077 0001015 132.9715 227.1359 15.06374314215531,15.06374314,0.0001015,LEO
46787,STARLINK-1899,2020,91.83,260.0,P,53.04,Active,1,LEO,USA,USA,Commercial,Communications,Falcon,1 46787U 20074BA  24258.58334491  .00360322  00000+0  28746-2 0  9997,2 46787  53.0373 151.3177 0007177 122.9294  30.6583 15.69495572  5835,15.69495572,0.0007177,LEO
46788,STARLINK-1929,2020,95.59,260.0,+,53.05,Active,1,LEO,USA,USA,Commercial,Communications,Falcon,1 46788U 20074BB  24258.26582818  .00019151  00000+0  13018-2 0  9998,2 46788  53.0531 202.1615 0001332 101.7401 258.3738 15.06379280215490,15.0637928,0.0001332,LEO
46789,STARLINK-1930,2020,95.59,260.0,+,53.05,Active,1,LEO,USA,USA,Commercial,Communications,Falcon,1 46789U 20074BC  24258.22253288  .00006853  00000+0  47893-3 0  9995,2 46789  53.0538 232.5203 0000464  86.8833 273.2209 15.06365531215061,15.06365531,4.64e-05,LEO
46790,STARLINK-1931,2020,95.59,260.0,+,53.05,Active,1,LEO,USA,USA,Commercial,Communications,Falcon,1 46790U 20074BD  24258.25199867 -.00001200  00000+0 -61700-4 0  9999,2 46790  53.0505 232.2245 0001524 102.2282 257.8877 15.06373652215061,15.06373652,0.0001524,LEO
46791,STARLINK-1933,2020,95.59,260.0,+,53.05,Active,1,LEO,USA,USA,Commercial,Communications,Falcon,1 46791U 20074BE  24258.33309134  .00004491  00000+0  32043-3 0  9999,2 46791  53.0524 231.8613 0001648  89.1678 270.9499 15.06373454215084,15.06373454,0.0001648,LEO
46792,STARLINK-1934,2020,95.59,260.0,+,53.05,Active,1,LEO,USA,USA,Commercial,Communications,Falcon,1 46792U 20074BF  24258.16077650  .00009944  00000+0  68552-3 0  9998,2 46792  53.0526 222.6364 0003507  85.2577 274.8812 15.06399867215199,15.06399867,0.0003507,LEO
46793,STARLINK-1941,2020,95.59,260.0,+,53.05,Active,1,LEO,USA,USA,Commercial,Communications,Falcon,1 46793U 20074BG  24258.25568830  .00005423  00000+0  38283-3 0  9990,2 46793  53.0525 232.2089 0001496  97.9173 262.1986 15.06382084215068,15.06382084,0.0001496,LEO
46794,STARLINK-1942,2020,95.59,260.0,+,53.05,Active,1,LEO,USA,USA,Commercial,Communications,Falcon,1 46794U 20074BH  24258.32940738  .00006782  00000+0  47405-3 0  9995,2 46794  53.0527 231.8765 0001296 108.4397 251.6733 15.06378692215086,15.06378692,0.0001296,LEO
46796,STARLINK-1944,2020,95.59,260.0,+,53.05,Active,1,LEO,USA,USA,Commercial,Communications,Falcon,1 46796U 20074BK  24258.30452855  .00029861  00000+0  20169-2 0  9993,2 46796  53.0518 221.9901 0001348 112.2110 247.9022 15.06367357215214,15.06367357,0.0001348,LEO
46798,STARLINK-1948,2020,95.59,260.0,+,53.05,Active,1,LEO,USA,USA,Commercial,Communications,Falcon,1 46798U 20074BM  24258.40263694  .00005651  00000+0  39827-3 0  9990,2 46798  53.0529 246.5517 0001595  88.3332 271.7840 15.06373265214887,15.06373265,0.0001595,LEO
46805,COSMOS 2547 [GLONASS-K],2020,675.73,1415.0,+,64.6,Active,1,MEO,Russia,Russia/USSR,Commercial/Military,Navigation (Global or Regional Positioning),Soyuz,1 46805U 20075A   24258.40219201  .00000034  00000+0  00000+0 0  9992,2 46805  64.6007 213.8833 0008326 241.2469 118.6546  2.13102770 30257,2.1310277,0.0008326,MEO
46807,YAOGAN-30 08A,2020,96.23,-1.0,+,34.99,Active,1,LEO,PRC,China,Military,Earth Observation,Long March,1 46807U 20076A   24258.61876872  .00010803  00000+0  93563-3 0  9996,2 46807  34.9953  20.2180 0001666 267.2262  92.8254 14.96417611211867,14.96417611,0.0001666,LEO
46808,YAOGAN-30 08B,2020,96.23,-1.0,+,35.0,Active,1,LEO,PRC,China,Military,Earth Observation,Long March,1 46808U 20076B   24258.52894754  .00010794  00000+0  93511-3 0  9998,2 46808  34.9960  20.4867 0001604 201.3316 158.7323 14.96407227211963,14.96407227,0.0001604,LEO
46809,YAOGAN-30 08C,2020,96.23,-1.0,+,35.0,Active,1,LEO,PRC,China,Military,Earth Observation,Long March,1 46809U 20076C   24258.57461546  .00010830  00000+0  93791-3 0  9994,2 46809  34.9974  20.0456 0006894 239.9252 120.0771 14.96404063211886,14.96404063,0.0006894,LEO
46810,TIANQI-6,2020,96.08,9.0,+,35.0,Active,1,LEO,PRC,China,Commercial,Technology Development,Long March,1 46810U 20076D   24258.56959373  .00013122  00000+0  10644-2 0  9997,2 46810  35.0030 359.0998 0012517 308.8465  51.1124 14.98858368212206,14.98858368,0.0012517,LEO
46818,CE-SAT IIB,2020,93.77,36.0,+,97.3,Active,1,LEO,New Zealand,Japan,Commercial,Technology Development,Electron,1 46818U 20077F   24258.55110258  .00037435  00000+0  10721-2 0  9995,2 46818  97.3051 316.7962 0009079  31.5577 328.6210 15.35791934215413,15.35791934,0.0009079,LEO
46826,NAVSTAR 80 (USA 309),2020,717.99,2300.0,+,54.15,Active,1,MEO,USA,USA,Commercial/Military,Navigation (Global or Regional Positioning),Falcon,1 46826U 20078A   24258.33019340  .00000046  00000+0  00000+0 0  9995,2 46826  54.1510 236.7865 0049447 198.9552 330.9498  2.00560340 28655,2.0056034,0.0049447,MEO
46905,RISAT-2BR2,2020,96.05,630.0,+,36.9,Active,1,LEO,India,India,Military,Earth Observation,PSLV,1 46905U 20081A   24258.59518453  .00013814  00000+0  11150-2 0  9992,2 46905  36.8989  64.5977 0008964 329.5570  30.4650 14.99238827211178,14.99238827,0.0008964,LEO
46906,KSM1-C,2020,95.3,-1.0,+,36.89,Active,1,LEO,India,Luxembourg,Commercial,Earth Observation,PSLV,1 46906U 20081B   24258.62056484  .00022704  00000+0  13251-2 0  9990,2 46906  36.8953  10.9294 0003374 291.3149  68.7235 15.11192735211675,15.11192735,0.0003374,LEO
46907,KSM1-D,2020,95.33,-1.0,+,36.9,Active,1,LEO,India,Luxembourg,Commercial,Earth Observation,PSLV,1 46907U 20081C   24258.56070360  .00020384  00000+0  12071-2 0  9994,2 46907  36.8991  12.7190 0005512 305.8165  54.2066 15.10689162211674,15.10689162,0.0005512,LEO
46908,LEMUR-2-OZARAK,2020,92.14,10.0,+,36.89,Active,1,LEO,India,USA,Commercial,Earth Observation,PSLV,1 46908U 20081D   24258.26817071  .00444308  00000+0  42311-2 0  9996,2 46908  36.8894 280.7404 0012591 145.4171 214.7412 15.64405060212695,15.6440506,0.0012591,LEO
46911,LEMUR-2-JEREMIAH,2020,92.52,10.0,+,36.9,Active,1,LEO,India,USA,Commercial,Earth Observation,PSLV,1 46911U 20081G   24258.35197972  .00267453  00000+0  33842-2 0  9994,2 46911  36.9027 282.7656 0020435 127.4293 232.8329 15.57462371212698,15.57462371,0.0020435,LEO
46912,KSM1-A,2020,95.31,-1.0,+,36.9,Active,1,LEO,India,Luxembourg,Commercial,Earth Observation,PSLV,1 46912U 20081H   24258.56352896  .00020471  00000+0  12017-2 0  9994,2 46912  36.8985  10.8094 0004643  15.3611 344.7273 15.11006974211704,15.11006974,0.0004643,LEO
46913,R2,2020,95.31,-1.0,+,36.9,Active,0,LEO,India,Lithuania,Unknown,Unknown,Unknown,1 46913U 20081J   24258.60608438  .00019852  00000+0  11636-2 0  9993,2 46913  36.9027   8.8297 0009517 322.9221  37.0865 15.11042732214539,15.11042732,0.0009517,LEO
46914,KSM1-B,2020,95.33,-1.0,+,36.9,Active,1,LEO,India,Luxembourg,Commercial,Earth Observation,PSLV,1 46914U 20081K   24258.50744495  .00019496  00000+0  11566-2 0  9993,2 46914  36.9034  12.6111 0008040 327.2637  32.7609 15.10621553214761,15.10621553,0.000804,LEO
46916,TIANTONG-1 2,2020,1436.16,-1.0,+,2.15,Active,1,GSO,PRC,China,Government,Communications,Long March,1 46916U 20082A   24253.60659302 -.00000349  00000+0  00000+0 0  9990,2 46916   2.1513 294.1413 0002961 294.7148 103.5119  1.00267531 14186,1.00267531,0.0002961,GSO
46940,BRO-2,2020,90.92,-1.0,+,97.53,Active,0,LEO,New Zealand,France,Unknown,Unknown,Unknown,1 46940U 20085M   24258.54189732  .00370969  00000+0  14898-2 0  9993,2 46940  97.5279  64.8082 0003081 291.1252  68.9689 15.85530586213509,15.85530586,0.0003081,LEO
46955,DRAGRACER 2 (AUGURY),2020,93.69,-1.0,+,97.55,Active,0,LEO,New Zealand,USA,Unknown,Unknown,Unknown,1 46955U 20085AC  24258.32380293  .00034590  00000+0  95106-3 0  9999,2 46955  97.5536  48.2841 0010075  92.8200 267.4197 15.37074203212437,15.37074203,0.0010075,LEO
46984,SENTINEL-6,2020,112.42,1192.0,+,66.04,Active,1,LEO,USA,ESA,Government,Earth Observation,Falcon,1 46984U 20086A   24258.55049825 -.00000057  00000+0  15348-4 0  9993,2 46984  66.0442  25.6605 0007797 269.1618  90.8504 12.80931501178396,12.80931501,0.0007797,LEO
47122,STARLINK-1777,2020,95.59,260.0,+,53.05,Active,1,LEO,USA,USA,Commercial,Communications,Falcon,1 47122U 20088A   24258.29070977  .00010330  00000+0  71248-3 0  9997,2 47122  53.0535 212.0513 0001681 108.6253 251.4918 15.06340635210235,15.06340635,0.0001681,LEO
47124,STARLINK-1785,2020,95.59,260.0,+,53.05,Active,1,LEO,USA,USA,Commercial,Communications,Falcon,1 47124U 20088C   24258.27735492  .00028987  00000+0  19596-2 0  9991,2 47124  53.0526 217.1225 0001755 101.2659 258.8527 15.06348868210169,15.06348868,0.0001755,LEO
47126,STARLINK-1812,2020,95.59,260.0,+,53.05,Active,1,LEO,USA,USA,Commercial,Communications,Falcon,1 47126U 20088E   24258.58190488  .00030697  00000+0  20723-2 0  9992,2 47126  53.0494 210.7400 0001422 109.0763 251.0380 15.06372561210284,15.06372561,0.0001422,LEO
